{
  "norad_id": 58210,
  "name": "STARLINK-30846",
  "history": [
    {
      "epoch": "2026-03-28T17:10:14.530080Z",
      "apogee_km": 483.8442423048382,
      "perigee_km": 482.2634239368872,
      "latitude_deg": 2.3653989608806887e-05,
      "longitude_deg": 3.5603716612412355,
      "height_km": 482.83846786344736,
      "semi_major_axis_km": 6861.190833120862,
      "eccentricity": 0.0001152,
      "inclination_deg": 43.0039,
      "raan_deg": 87.2528,
      "arg_perigee_deg": 269.441,
      "mean_anomaly_deg": 90.631,
      "mean_motion_rev_day": 15.27578418
    },
    {
      "epoch": "2026-03-29T01:01:01.349472Z",
      "apogee_km": 483.86435402622374,
      "perigee_km": 482.23688032342943,
      "latitude_deg": 1.983342530011532e-06,
      "longitude_deg": -116.30317001651264,
      "height_km": 482.78057144105236,
      "semi_major_axis_km": 6861.187617174826,
      "eccentricity": 0.0001186,
      "inclination_deg": 43.004,
      "raan_deg": 85.4066,
      "arg_perigee_deg": 273.3124,
      "mean_anomaly_deg": 86.7592,
      "mean_motion_rev_day": 15.27579492
    },
    {
      "epoch": "2026-03-30T00:33:22.404672Z",
      "apogee_km": 483.5782327260613,
      "perigee_km": 482.54905262965895,
      "latitude_deg": -8.676945872400672e-06,
      "longitude_deg": -115.89703072395668,
      "height_km": 482.78933251015303,
      "semi_major_axis_km": 6861.20064267786,
      "eccentricity": 7.5e-05,
      "inclination_deg": 43.0041,
      "raan_deg": 79.8672,
      "arg_perigee_deg": 275.6774,
      "mean_anomaly_deg": 84.3992,
      "mean_motion_rev_day": 15.27575142
    },
    {
      "epoch": "2026-03-30T00:33:22.405536Z",
      "apogee_km": 483.57836995007347,
      "perigee_km": 482.54891540564586,
      "latitude_deg": -7.111941156946364e-06,
      "longitude_deg": -115.89703266506223,
      "height_km": 482.78931893693016,
      "semi_major_axis_km": 6861.20064267786,
      "eccentricity": 7.502e-05,
      "inclination_deg": 43.0041,
      "raan_deg": 79.8672,
      "arg_perigee_deg": 275.6774,
      "mean_anomaly_deg": 84.3992,
      "mean_motion_rev_day": 15.27575142
    },
    {
      "epoch": "2026-03-30T16:14:56.154048Z",
      "apogee_km": 483.48718004014427,
      "perigee_km": 482.61114379099126,
      "latitude_deg": -1.0070566773846314e-05,
      "longitude_deg": 4.375469521316911,
      "height_km": 482.7656083544315,
      "semi_major_axis_km": 6861.186161915568,
      "eccentricity": 6.384e-05,
      "inclination_deg": 43.0021,
      "raan_deg": 76.1748,
      "arg_perigee_deg": 277.8498,
      "mean_anomaly_deg": 82.2281,
      "mean_motion_rev_day": 15.27579978
    },
    {
      "epoch": "2026-03-31T15:47:17.477088Z",
      "apogee_km": 483.6016093810458,
      "perigee_km": 482.5696814951716,
      "latitude_deg": -6.383955692632894e-06,
      "longitude_deg": 4.782405838745832,
      "height_km": 482.79387565692235,
      "semi_major_axis_km": 6861.222645438109,
      "eccentricity": 7.52e-05,
      "inclination_deg": 42.9967,
      "raan_deg": 70.6373,
      "arg_perigee_deg": 277.5221,
      "mean_anomaly_deg": 82.5545,
      "mean_motion_rev_day": 15.27567794
    }
  ]
}